<?xml version="1.0" encoding="UTF-8"?>
<kml xmlns="http://www.opengis.net/kml/2.2" xmlns:gx="http://www.google.com/kml/ext/2.2" xmlns:kml="http://www.opengis.net/kml/2.2" xmlns:atom="http://www.w3.org/2005/Atom">
<Document id="document">
	<name>Untitled map</name>
	<gx:CascadingStyle kml:id="__managed_style_29E7A9F2683D8A22B35C">
		<Style>
			<IconStyle>
				<scale>1.2</scale>
				<Icon>
					<href>https://earth.google.com/earth/document/icon?color=1976d2&amp;id=2000&amp;scale=4</href>
				</Icon>
				<hotSpot x="64" y="128" xunits="pixels" yunits="insetPixels"/>
			</IconStyle>
			<LabelStyle>
			</LabelStyle>
			<LineStyle>
				<color>ff2dc0fb</color>
				<width>3</width>
			</LineStyle>
			<PolyStyle>
				<color>40ffffff</color>
			</PolyStyle>
			<BalloonStyle>
				<displayMode>hide</displayMode>
			</BalloonStyle>
		</Style>
	</gx:CascadingStyle>
	<gx:CascadingStyle kml:id="__managed_style_149BDFEFD83D8A22B35C">
		<Style>
			<IconStyle>
				<Icon>
					<href>https://earth.google.com/earth/document/icon?color=1976d2&amp;id=2000&amp;scale=4</href>
				</Icon>
				<hotSpot x="64" y="128" xunits="pixels" yunits="insetPixels"/>
			</IconStyle>
			<LabelStyle>
			</LabelStyle>
			<LineStyle>
				<color>ff2dc0fb</color>
				<width>2</width>
			</LineStyle>
			<PolyStyle>
				<color>40ffffff</color>
			</PolyStyle>
			<BalloonStyle>
				<displayMode>hide</displayMode>
			</BalloonStyle>
		</Style>
	</gx:CascadingStyle>
	<StyleMap id="__managed_style_0280BA433E3D8A22B35C">
		<Pair>
			<key>normal</key>
			<styleUrl>#__managed_style_149BDFEFD83D8A22B35C</styleUrl>
		</Pair>
		<Pair>
			<key>highlight</key>
			<styleUrl>#__managed_style_29E7A9F2683D8A22B35C</styleUrl>
		</Pair>
	</StyleMap>
	<Placemark id="060991F35C3D8A22B350">
		<name>LakeShapefileIndia</name>
		<LookAt>
			<longitude>77.67696758726584</longitude>
			<latitude>12.93627598617939</latitude>
			<altitude>895.7218207740983</altitude>
			<heading>-0.228223532538353</heading>
			<tilt>8.042179177024119</tilt>
			<gx:fovy>35</gx:fovy>
			<range>5384.026907559602</range>
			<altitudeMode>absolute</altitudeMode>
		</LookAt>
		<styleUrl>#__managed_style_0280BA433E3D8A22B35C</styleUrl>
		<Polygon>
			<outerBoundaryIs>
				<LinearRing>
					<coordinates>
						77.67774161873888,12.94100585851355,0 77.67746701838257,12.94088266931119,0 77.67730044512025,12.94064154541476,0 77.67754147523408,12.94056713711365,0 77.67762907072292,12.94021992275971,0 77.67749623545077,12.94009917859713,0 77.67708315289494,12.9402076741655,0 77.67680196058578,12.94029225777672,0 77.67615695996514,12.94033062641435,0 77.67574889705068,12.94031398866905,0 77.67542244285997,12.94044828740344,0 77.67527050988019,12.9406276494102,0 77.67508646557106,12.9408544446577,0 77.67480806355536,12.94107891881191,0 77.67448313155273,12.94139280318502,0 77.67409902109783,12.9414597214379,0 77.67350286008849,12.94118162284661,0 77.67313691422579,12.94095993730816,0 77.67273608228888,12.94070264860284,0 77.67232955150713,12.94032604508005,0 77.67201811043299,12.93996385708551,0 77.6715092299964,12.93981685980349,0 77.67117261245387,12.93960047593123,0 77.67086914062385,12.93926252692643,0 77.67042504456187,12.93905303428759,0 77.67003877502101,12.93878826975639,0 77.66952558404856,12.93875702412331,0 77.66907988614786,12.93872689808146,0 77.66873861302066,12.93882968358774,0 77.66841986258321,12.9390017422857,0 77.66807163948975,12.93929229774026,0 77.66785003229357,12.93939936225136,0 77.66768447873756,12.93915467700267,0 77.66742174579535,12.93893915198131,0 77.66715981504042,12.93868904775131,0 77.66710787015693,12.93837510498505,0 77.66710118176988,12.93811986990855,0 77.66722948985728,12.93757823897914,0 77.66697427970347,12.9375480417321,0 77.66696147741506,12.93723944632057,0 77.66689130357858,12.93694115449494,0 77.66680961282754,12.93661015622704,0 77.66676917186753,12.93631541697339,0 77.66673260527874,12.93608495872609,0 77.66671384039068,12.93581105529921,0 77.66674499025652,12.93557217971224,0 77.66678072298831,12.93518576219407,0 77.66686144255583,12.93469795382868,0 77.66691514903472,12.93438463987763,0 77.66697610270505,12.93382908802297,0 77.66705256480719,12.93318701546777,0 77.66708123796889,12.93269471422481,0 77.66711938156132,12.93221918492992,0 77.66711131544996,12.93203162698161,0 77.66708691335131,12.93178419475385,0 77.6670770991379,12.9316613672969,0 77.66706158466576,12.93136498265615,0 77.66707272208255,12.93124733980956,0 77.66716580402695,12.93117254321148,0 77.66734092749758,12.93116452588203,0 77.66760586019579,12.93117527133259,0 77.66792823889691,12.9311975684728,0 77.66814851338184,12.93120483698657,0 77.66873584359661,12.93122210702267,0 77.66904467439737,12.93120190055338,0 77.66960824661354,12.93119225121528,0 77.66986364476452,12.93120006645213,0 77.67010874665536,12.93119892290251,0 77.67037137731985,12.93117971908407,0 77.67072919963923,12.93118901438791,0 77.67096726260969,12.93118240145255,0 77.67120985158572,12.93117214356343,0 77.67137348382195,12.93117542170724,0 77.67150733466119,12.93119137730677,0 77.67187901775971,12.93118610004917,0 77.67212307275253,12.93115048167989,0 77.67235496640646,12.93111143878951,0 77.67275261268121,12.93110743206256,0 77.6730380867433,12.93116460113942,0 77.67313517428622,12.93126964066653,0 77.67329093523968,12.93136495813551,0 77.6734864216894,12.93140449362314,0 77.67372234041484,12.93146541209325,0 77.67392812547409,12.93150203443294,0 77.67411438971548,12.93155753398039,0 77.67433453683695,12.93164860875623,0 77.67449840151791,12.93172213361968,0 77.67468706255248,12.93184914849716,0 77.67483449488971,12.93193428968419,0 77.67502727017524,12.93203495383457,0 77.67516707942055,12.93208743818862,0 77.67539165279615,12.93222919338922,0 77.67567245540033,12.93231132632794,0 77.67592570818276,12.93232171556139,0 77.67627669527961,12.93231225262983,0 77.67644753685563,12.93234016074316,0 77.67657696930735,12.93219422116309,0 77.67666426571192,12.93207024771539,0 77.67673881726284,12.93233127313997,0 77.67676309484565,12.93250051300809,0 77.67670822799126,12.93266240667476,0 77.67674185565556,12.93289175172632,0 77.67680917791888,12.93318165839555,0 77.67684909471951,12.93344181276643,0 77.67679712091687,12.93361706598121,0 77.67679755906731,12.93383555295587,0 77.67676545834338,12.93401198897162,0 77.67675442890587,12.93419026147533,0 77.67671309419406,12.93430610135147,0 77.67668561591846,12.93447582105662,0 77.67664419464263,12.93463382523991,0 77.67660289661497,12.93474064733829,0 77.67659879707982,12.93487308792934,0 77.67651716759374,12.93509935294621,0 77.67647470886146,12.93528165527407,0 77.67643272827522,12.93544023729311,0 77.67642181907051,12.93557030421607,0 77.67647053469094,12.93571654386446,0 77.67651550581583,12.93581872683812,0 77.67657995944055,12.93589166299077,0 77.67665314776657,12.93604268006243,0 77.67674101601446,12.93617008179432,0 77.6768820107666,12.93626379484713,0 77.67693985770433,12.93640765625967,0 77.67696944078936,12.93653433215865,0 77.67693631833734,12.936709511766,0 77.676973257372,12.93678597804443,0 77.67696096607483,12.9369289892634,0 77.67699396263691,12.93709688942223,0 77.67700612066525,12.93722363638617,0 77.67701931808399,12.93737405253376,0 77.67704718827588,12.93749236123411,0 77.67706859475922,12.93760104684894,0 77.67710530669851,12.93770848917987,0 77.67711623581026,12.93780260789832,0 77.67717556351833,12.9379467827237,0 77.67721839324645,12.93804818730489,0 77.67727602999504,12.93815757987298,0 77.67732575056888,12.93825311774379,0 77.67739902074803,12.93833283359564,0 77.67747248253777,12.93843269853786,0 77.67752655264607,12.93852502377043,0 77.67756505434986,12.93866753751362,0 77.67764830315748,12.93889713668324,0 77.67768453018212,12.9389849398193,0 77.67774600028791,12.93906816305065,0 77.67779566291313,12.93914556570938,0 77.67789700175642,12.93922291520836,0 77.67798724901839,12.93927765708483,0 77.67808490110026,12.93933357110788,0 77.67811605488903,12.93945214103491,0 77.67817684513683,12.93964036213275,0 77.67827734191565,12.93990500315979,0 77.67839018303586,12.9403005881746,0 77.67836695956026,12.94054741029263,0 77.67822031583421,12.94074279713859,0 77.67811565844401,12.94095447370513,0 77.67774161873888,12.94100585851355,0 
					</coordinates>
				</LinearRing>
			</outerBoundaryIs>
		</Polygon>
	</Placemark>
</Document>
</kml>
